Company name,City,Country,Business,Fax,Telephone,Email,Web Site,WhatsApp,Mobile,Linkedin
CME Solutions,Rabat, Morocco,"['Exporter - Export - Import', 'Importer - Export - Import', 'Nursery - Fertilizer']",-,+212661295525,cmesolutions.com@gmail.com,-,+212661295525,-,-
Frulity LLC,Miskolc, Hungary,"['Agent - Agent', 'Exporter - Export - Import', 'Fruit and Vegetable Processing - Frozen foods', 'Importer - Export - Import', 'Nursery - Fertilizer', 'Services - Agricultural consultant', 'Services - Insurance']",-,-,rem.krisztian@frulity.hu,www.frulity.hu,-,+36302693226,-
Kalem Djordjevic,Milutovac, Serbia,"['Exporter - Exporter', 'Nursery - Plant Nursery', 'Producer - Producer and trader', 'Wholesaler - Producer and trader']",-,-,office@kalemdjordjevic.ml,www.kalemdjordjevic.ml,+381645804466,+381645804466,-
Leader Cooperativa Agricola,Giarre, Italy,"['Exporter - Export - Import', 'Importer - Export - Import', 'Nursery - Seeds', 'Producer - Direct from farm', 'Producer - Producer and trader', 'Retailer - Foodstuffs', 'Wholesaler - Producer and trader', 'Wholesaler - Wholesale']",-,-,leadercoopagricola@gmail.com,-,+3404147800,+3404147800,-
Pr Agro Projekt,Lazarevac, Serbia,"['Exporter - Exporter', 'Nursery - Plant Nursery', 'Producer - Producer', 'Wholesaler - Producer', 'Wholesaler - Wholesale']",-,-,vocnesadnice@hotmail.rs,http://vocnesadnice.org,+381631944345,+381631944345,-
Trajnice Golob-Klančič,Šempas, Slovenia,"['Exporter - Exporter', 'Nursery - Plant Nursery', 'Producer - Producer', 'Wholesaler - Producer', 'Wholesaler - Wholesale']",-,-,trajnice@trajnice.com,-,-,-,-
AGRIMATCO S.R.L.,Bucharest, Romania,['Nursery - Seeds'],+40212302247,+40212302243,office@agrimatco.ro,www.agrimatco.ro,-,+40722153124,-
KINGFRUIT S.r.l.,Verona, Italy,"['Nursery - Plant Nursery', 'Producer - Producer and trader', 'Wholesaler - Producer and trader']",+390458518981,+390458510268,info@kingkiwi.com,www.ceradinigroup.com,-,+393474662769,-
ABCZ GROUP BVBA,St-Amandsberg, Belgium,['Nursery - Plant Nursery'],-,-,contact@abcz-group.com,www.abcz-group.com,-,+32494469887,-
ABDILLA RAYMOND,Safi, Malta,"['Exporter - Export - Import', 'Importer - Export - Import', 'Nursery - Fertilizer']",-,-,potatograding@waldonet.net.mt,-,-,+35699497980,-
ABONOS DEL PACIFICO (ABOPAC) S.A.,San José, Costa Rica,['Nursery - Fertilizer'],+50622051040,+50622051000,-,-,-,-,-
ACADIAN SEAPLANTS LIMITED,"Dartmouth, NS", Canada,['Nursery - Seeds'],+19024683474,+19024682840,info@acadian.ca,www.acadianseaplants.com,-,+19022407186,-
AGE-RIJNVALLEI,Waardenburg, Holland - The Netherlands,['Nursery - Plant Nursery'],+31418655940,+31418655944,-,www.age-rijnvallei.nl,-,-,-
AGPRO ONIONS B.V.,Zuid-Beijerland, Holland - The Netherlands,['Nursery - Seeds'],+31186660330,+31186660660,info@agpro-onions.nl,www.agpro-onions.nl,-,+31653703435,-
AGRARES IBERIA S.L.,Alfaro, Spain,['Nursery - Fertilizer'],-,-,agrares@agrares.com,www.agrares.com,-,+34618518702,-
AGREMBAL,"Aït Melloul, Inezgane-Aït Melloul", Morocco,"['Auxiliary Industries - Equipment and services', 'Auxiliary Industries - Industry - Packaging', 'Nursery - Seeds']",+212528247161,+212528242514,agrembal@menara.ma,www.agrembal.ma,-,-,-
AGRI SEEDS (UK) LTD.,"Boston, Lincolnshire", United Kingdom,['Nursery - Seeds'],-,-,paullote@agriseed.co.uk,www.agriseed.co.uk,-,+447809407677,-
AGRICOLA RINO di MATTAVELLI GUALTIERO,Mezzago, Italy,"['Nursery - Plant Nursery', 'Producer - Producer', 'Wholesaler - Producer']",-,-,info@agricolarino.it,www.agricolarino.it,-,+393472232288,-
AGRICOLA VIVEROS PARLIER LTDA.,San Bernardo, Chile,"['Exporter - Exporter', 'Nursery - Plant Nursery', 'Producer - Producer', 'Wholesaler - Producer']",+56228572855,+56228572365,thuneeus@parlier.cl,www.parlier.cl,-,-,-
AGRICULTURAL MATERIALS CO.,Casablanca, Morocco,['Nursery - Seeds'],+212522487664,+212522487661,-,-,-,-,-
AGRICULTURAL MATERIALS CO.LTD.(MIQDADI) AGRIMATCO,Jabal Amman, Jordan,['Nursery - Seeds'],+96264611885,+96224613785,-,www.agrimatcom.com,-,-,-
AGRIFUTUR S.r.l.,Alfianello, Italy,['Nursery - Fertilizer'],+390309934777,+390309934776,roberto.kron-morelli@agrifutur.com,www.agrifutur.com,-,-,-
AGRIGES S.r.l.,San Salvatore Telesino, Italy,['Nursery - Fertilizer'],+390824947442,+390824947065,jobs@agriges.com,www.agriges.com,-,-,-
AGRIMAR (UK) PLC,"Brentford, Middx", United Kingdom,['Nursery - Seeds'],+442085604466,+442085601160,info@agrimarukplc.co.uk,-,-,-,-
AGRIMATCO CORP.,"Urumqi, Xinjiang", China,['Nursery - Seeds'],-,-,ym_bao66@yahoo.com.cn,-,-,-,-
AGRIMATCO S.A.R.L.,"Staoueli, Alger", Algeria,['Nursery - Seeds'],+21321392514,+21321392109,-,-,-,-,-
AGRIMATCO SIA,Riga, Latvia,['Nursery - Seeds'],+371067672217,+371067807711,-,-,-,-,-
AGRIS S.A.,Imathia, Greece,"['Nursery - Plant Nursery', 'Nursery - Seeds']",+302333053517,+302333053500,info@agris.gr,www.agris.gr,-,-,-
AGRISOL LTD,Kiev, Ukraine,['Nursery - Fertilizer'],+380445024947,+380445024520,agrisol@optima.com.ua,www.agrisol.com.ua,-,-,-
AGRO DEBEUCKELAERE STADEN BVBA,Staden, Belgium,"['Nursery - Fertilizer', 'Wholesaler - Wholesale']",+3251701944,+3251701625,agro.debeuckelaere@skynet.be,www.agrodebeuckelaere.be,-,+32495856139,-
AGRO STENDE SIA,Stende, Latvia,['Nursery - Fertilizer'],+37163291370,+37163291375,-,www.agrostende.lv,-,-,-
AGROAXON S.A.,Magnissia, Greece,['Nursery - Seeds'],+302422022848,+302422024761,agroaxon@otenet.gr,-,-,-,-
AGROBEN,Kozmin Wielkopolski, Poland,"['Auxiliary Industries - Industry - Packaging', 'Nursery - Fertilizer']",-,-,-,www.agroben.com,-,+48666930421,-
AGROCARE INDIA PVT LTD.,Uttar Pradesh, India,['Nursery - Fertilizer'],-,-,info@agrocare.tradeindia.com,http://agrocare.tradeindia.com,-,+919927201460,-
AGROFRESH ITALIA S.r.l.,Mozzate, Italy,"['Auxiliary Industries - Equipment and services', 'Nursery - Fertilizer']",+390331821314,+390331839111,-,www.agrofresh.com,-,+39335205162,-
AGROPECUARIA POPOYAN S.A.,Guatemala, Guatemala,"['Nursery - Fertilizer', 'Nursery - Seeds']",+50223311760,+50223273333,info@popoyan.com,www.popoyan.com,-,-,-
AGROQUIMICOS S.L.,Molina de Segura, Spain,['Nursery - Seeds'],-,+34968430263,-,-,-,+34639667718,-
AGROSYSTEM S.A.,Ierapetra-Crete, Greece,['Nursery - Seeds'],+302842051607,+302842051603,-,www.agrosystem.gr,-,-,-
AGROTRANS Spol. s r.o.,Samorín, Slovakia,['Nursery - Seeds'],+421315600771,+421315624837,szeiff@agrotrans.sk,www.agrotrans.sk,-,+421918714885,-
AGROVIVAISTICA CARDILLO,Francolise, Italy,"['Nursery - Plant Nursery', 'Producer - Producer and trader', 'Wholesaler - Producer and trader']",-,-,agrovivai.cardillo@gmail.com,www.agrovivaisticacardillo.eu,-,+393286891280,-
AL-ANDALUS HORTICULTURA S.L.,Cordoba, Spain,['Nursery - Plant Nursery'],-,-,alandalushorticultura@hotmail.com,www.alandalushorticultura.com,-,+34669834507,-
ALBA SOLDEVILA,Alguaire, Spain,['Nursery - Plant Nursery'],-,-,info@alba-soldevila.com,www.alba-soldevila.com,-,+34652699934,-
"ALECOCONSULT PERU, S.A.C.",Chiclayo, Peru,"['Nursery - Fertilizer', 'Nursery - Seeds']",-,-,info@alecoconsult.com,www.alecoconsult.com,-,-,-
ALMERIPLANT AGRO S.L.,Puebla de Vicar, Spain,"['Nursery - Plant Nursery', 'Nursery - Seeds', 'Producer - Producer', 'Wholesaler - Producer']",+34950553508,+34950553410,tecnicos@almeriplant.com,www.almeriplant.com,-,-,-
ALMERIPLANT AGRO S.L.,Campohermoso - Nijar, Spain,"['Nursery - Plant Nursery', 'Nursery - Seeds', 'Producer - Producer', 'Wholesaler - Producer']",+34950553508,+34950553410,tecnicos@almeriplant.com,www.almeriplant.com,-,-,-
ALMERIPLANT AGRO S.L.,La Cañada de San Urbano, Spain,"['Nursery - Plant Nursery', 'Nursery - Seeds', 'Producer - Producer', 'Wholesaler - Producer']",+34950292072,+34950292127,tecnicos@almeriplant.com,www.almeriplant.com,-,-,-
ALMERIPLANT AGRO S.L.,Palomares, Spain,"['Nursery - Plant Nursery', 'Nursery - Seeds', 'Producer - Producer', 'Wholesaler - Producer']",-,-,tecnicos@almeriplant.com,www.almeriplant.com,-,-,-
AMMERLAAN LEO PLANTENKWEKERIJ B.V.,Bleiswijk, Holland - The Netherlands,"['Nursery - Plant Nursery', 'Nursery - Seeds', 'Producer - Producer', 'Wholesaler - Producer']",+31105219869,+31105217411,info@leoammerlaan.nl,www.leoammerlaan.nl,-,-,-
ANTONIO-TRADE,Split, Croatia (Hrvatska),"['Fruit and Vegetable Processing - Fruit processing industry', 'Nursery - Fertilizer', 'Nursery - Plant Nursery', 'Nursery - Seeds']",+38521374780,+38521453340,tajnica@antonio-trade.hr,www.antonio-trade.hr,-,-,-
APICE PIANTE del Dr. ROBERTO DI PRIMIO,Ripa Teatina, Italy,['Nursery - Plant Nursery'],-,-,apicepiante@tin.it,-,-,-,-
ARGENTA SEEDS B.V.,Bleiswijk, Holland - The Netherlands,['Nursery - Seeds'],+31105214767,+31105212394,martin@argentaseeds.com,www.uniseeds.nl,-,+31645286831,-
ARPA SPECIALI S.r.l.,Mantova, Italy,"['Auxiliary Industries - Equipment and services', 'Nursery - Seeds']",+390376268654,+390376262483,elena@arpaspeciali.com,www.arpaspeciali.com,-,-,-
ARTEVOS GmbH,Karlsruhe, Germany,['Nursery - Plant Nursery'],+497219448080,+49721944807,info@artus-group.de,www.gevo.info,-,-,-
ARUM DEC d.o.o.,Beograd, Serbia,"['Auxiliary Industries - Equipment and services', 'Nursery - Fertilizer']",+381113774706,+381113774707,info@arum.rs,www.arum.rs,-,-,-
ASTRACHEM SAOUDIA BB,Alger, Algeria,['Nursery - Fertilizer'],+21321362519,+21321362517,algeria@astrachem.net,-,-,-,-
ASTRACHEM TURKEY-DANISMANLIK VE MUHENDISLIK Ltd sti,Adana, Turkey,['Nursery - Fertilizer'],+903224571088,+903224571060,siyil@superonline.com,-,-,-,-
AVASA AGRUPACION DE VIVERISTAS DE AGRIOS S.A.,Alcalá de Chivert, Spain,['Nursery - Plant Nursery'],+34964761325,+34964761168,-,www.ediho.es/avasa,-,-,-
AXS M31 di ZAMBANINI SILVANA,San Lorenzo in Banale, Italy,['Nursery - Fertilizer'],-,-,info@axsm31.com,www.axsm31.com,-,-,-
BAGLIONE VIVAI CAV.GIOVANNI BAGLIONE TORRE di FRANCESCO BAGLIONE,Lamezia Terme, Italy,['Nursery - Plant Nursery'],-,-,baglionepiantesrl@tin.it,-,-,-,-
BALL COLEGRAVE LTD,"Banbury, Oxon", United Kingdom,['Nursery - Seeds'],+441295812135,+441295812020,-,-,-,-,-
BALTIC AGRO SIA,Riga, Latvia,['Nursery - Fertilizer'],+37167830280,+37167228851,info@balticagro.lv,www.balticagro.com,-,-,-
BATTISTINI VIVAI Dr. GIUSEPPE,Martorano, Italy,['Nursery - Plant Nursery'],+390547639315,+390547382122,info@vivaibattistini.com,www.vivaibattistini.com,-,+393488707250,-
BAUMSCHULE FLEUREN B.V.,Baarlo, Holland - The Netherlands,['Nursery - Plant Nursery'],+31774771312,+31774772100,info@fleuren.net,www.fleuren.net,-,-,-
BAUMSCHULE FORCHER DI NISCHLER & FORCHER,Castelbello-Ciardes, Italy,['Nursery - Plant Nursery'],+390473727354,+390473624692,info@forcher.it,www.baumschule-forcher.com,-,-,-
BAUMSCHULE N.V. GEEFA,Alken, Belgium,['Nursery - Plant Nursery'],+3211316526,+3211312125,info@renenicolai.be,-,-,-,-
BAYER CROPSCIENCE AG,Monheim am Rhein, Germany,"['Nursery - Fertilizer', 'Nursery - Seeds']",+492173383352,+492173385788,horst.stauff@bayercropscience.com,www.newsroom.bayercropscience.com,-,-,-
BAYER CROPSCIENCE CJSC,Moscow, Russian Federation,"['Nursery - Fertilizer', 'Nursery - Seeds']",+74959561319,+74959561338,philipp.mikov@bayercropscience.com,www.bayercropscience.com,-,-,-
BEJO ANDES LTDA,Las Condes, Chile,['Nursery - Seeds'],+56223351924,+56223351897,j.lisperguier@bejoandes.cl,www.bejoandes.cl,-,+5698170481,-
BEJO BOHEMIA s.r.o.,Opatovice nad Labem, Czech Republic,['Nursery - Seeds'],+420466981901,+420466981140,info@bejo.cz,www.bejo.cz,-,+420602455636,-
BEJO IBERICA S.L.,San Sebastián de los Reyes, Spain,['Nursery - Seeds'],+34916587201,+34916587072,info@bejo.es,www.bejo.es,-,-,-
BEJO ITALIA S.r.l.,Pisignano di Cervia, Italy,['Nursery - Seeds'],+390544959045,+390544959011,info@bejoitalia.it,www.bejoitalia.it,-,-,-
BEJO ZADEN B.V.,Warmenhuizen, Holland - The Netherlands,['Nursery - Plant Nursery'],+31226393504,+31226396162,info@bejo.nl,www.bejo.nl,-,-,-
BEN-DOR FRUITS & NURSERIES,Yesud A'maala, Israel,"['Exporter - Exporter', 'Nursery - Plant Nursery']",+97246937161,+97246930591,bendorse@zahav.net.il,www.bendorfruits.co.il,-,+972528391177,-
BERENGUER CASTILLA S.L.,Albuñol, Spain,"['Nursery - Fertilizer', 'Wholesaler - Wholesale']",-,-,-,-,-,-,-
BETTER3FRUIT N.V.,Rillaar, Belgium,['Nursery - Plant Nursery'],+3216228895,+3216241610,an@better3fruit.com,www.better3fruit.com,-,-,-
BIOFRESH FRESHPALLET LTD,"Stocksfield,Northumberland", United Kingdom,"['Auxiliary Industries - Equipment and services', 'Fruit and Vegetable Processing - Freeze-keeping', 'Nursery - Fertilizer']",+441661843159,+441661844866,info@japan-concept.co.uk,www.bio-fresh.co.uk,-,+393335925019,-
BIOPLANTS S.A.,Lonay, Switzerland,['Nursery - Plant Nursery'],+41218024633,+41218016229,dmarchand@bioplants.ch,-,-,-,-
BLACK SEA FRUIT COMPANY,Freiburg, Germany,"['Nursery - Plant Nursery', 'Producer - Producer and trader', 'Wholesaler - Producer and trader']",+49619261007,+49985438841,imikulina2002@yahoo.de,-,-,+4917624745282,-
BLACK SEA FRUIT COMPANY LTD,Melitopol, Ukraine,"['Nursery - Plant Nursery', 'Producer - Producer and trader', 'Wholesaler - Producer and trader']",-,-,frut-kontakt@rambler.ru,-,-,+380677509779,-
BLUMEN S.r.l.,Casalecchio di Reno, Italy,['Nursery - Seeds'],+390516178900,+390516190096,lisa.benotti@olter.it,www.blumen.it,-,-,-
BRITISH SUGAR PLC,Norfolk, United Kingdom,"['Nursery - Plant Nursery', 'Producer - Producer and trader', 'Wholesaler - Producer and trader']",+441733563068,+441366500999,-,-,-,-,-
BRUNO NEBELUNG GmbH,Everswinkel, Germany,['Nursery - Seeds'],+492582670270,+4925826700,info@nebelung.de,www.nebelung.de,-,-,-
C.I.V. CONSORZIO ITALIANO VIVAISTI,San Giuseppe di Comacchio, Italy,['Nursery - Plant Nursery'],+390533399441,+390533399431,amartinelli@civ.it,www.civ.it,-,+393356370981,-
C.V.T. CONSORZIO VIVAISTI TOSCANI,Cenaia, Italy,['Nursery - Plant Nursery'],-,-,-,-,-,-,-
CAIRO & DOUTCHER Az. Agr. s.n.c.,Copertino, Italy,"['Nursery - Plant Nursery', 'Producer - Producer and trader', 'Wholesaler - Producer and trader']",+390832931093,+390832937139,c.estero@cairodoutcher.com,www.cairodoutcher.com,-,+393289863911,-
CAMPISI FRANCESCO Az. Agr.,Siracusa, Italy,['Nursery - Plant Nursery'],+390931718098,+390931718133,-,-,-,-,-
CAMPOLI ALESSANDRO E FILIPPO s.s. Soc. Agr.,Sezze Scalo, Italy,['Nursery - Seeds'],-,-,info@campoli.it,www.campoli.it,-,-,-
CAROLUS C. BVBA,Nieuwerkerken, Belgium,['Nursery - Plant Nursery'],+3211674764,+3211688701,koen@carolustrees.com,www.carolustrees.com,-,-,-
CATOM SEE'D THE DIFFERENCE,Moshav Ein Tamar, Israel,"['Nursery - Plant Nursery', 'Nursery - Seeds']",+97286557001,+97286553256,catomseeds@gmail.com,www.catomseeds.com,-,+972522621671,-
CAV TEBANO CENTRO ATTIVITA' VIVAISTICHE,Faenza, Italy,['Nursery - Plant Nursery'],+39054647189,+39054647209,cav@cavtebano.it,www.cavtebano.it,-,-,-
CAVALER VIVAI DI CAVALER DR. ROBERTO,Isola della Scala, Italy,['Nursery - Plant Nursery'],-,-,info@vivaicavaler.it,www.vivaicavaler.it,-,-,-
CERTIS EUROPE B.V.,Maarssen, Holland - The Netherlands,"['Auxiliary Industries - Equipment and services', 'Auxiliary Industries - Industry- Chemical industry', 'Nursery - Fertilizer']",+31346290601,+31346290600,bcpinfo@certiseurope.co.uk,www.certiseurope.es,-,-,-
CERTIS EUROPE B.V. FILIALE ITALIANA,Saronno, Italy,"['Auxiliary Industries - Equipment and services', 'Auxiliary Industries - Industry- Chemical industry', 'Nursery - Fertilizer']",+390296248746,+39029609983,panizza@certiseurope.it,www.certiseurope.it,-,-,-
CIBAKERT MAG Kft.,Kétpo, Hungary,['Nursery - Seeds'],-,-,cibakert@axelero.hu,www.cibakert.hu,-,+36306271863,-
CISA MARIO NERI Soc. Coop.,Imola, Italy,['Nursery - Plant Nursery'],-,-,-,-,-,-,-
CLAUSE ITALIA S.p.A.,Venaria Reale, Italy,['Nursery - Seeds'],+390114531584,+390114530093,roberta.tomasella@hmclause.com,www.clause-vegseeds.com,-,+3903357049723,-
CLAUSE VEGETABLE SEEDS,Portes-les-Valence, France,['Nursery - Seeds'],+33475573494,+33475575218,contact@hmclause.com,www.clause-vegseeds.com,-,+33681777334,-
CLONE VIVEIROS & FRUTICULTURA,Curitiba, Brazil,['Nursery - Plant Nursery'],+554132532904,+554132532940,-,www.cloneviveiros.com.br,-,+554199774751,-
CLUSTER DE MANGO,Santo Domingo de Guzmán, Dominican Republic,"['Nursery - Plant Nursery', 'Producer - Producer and trader', 'Wholesaler - Producer and trader']",+18095444727,+18095655603,clustermangodom@yahoo.com,www.promangord.org,-,+18294703481,-
CN SEEDS LTD.,"Ely, Cambs", United Kingdom,['Nursery - Seeds'],+441353698806,+441353699413,info@cnseeds.co.uk,www.cnseeds.co.uk,-,-,-
CO.N.VI. VIVAI di SPADA SERGIO E RENATO,Brisighella, Italy,['Nursery - Plant Nursery'],-,-,info@vivaiconvi.eu,www.vivaiconvi.eu,-,+393358334810,-
CO.V.E.R. S.c.a r.l.,Lugo, Italy,['Nursery - Plant Nursery'],+39054532381,+39054535918,cover.vivai@libero.it,-,-,-,-
CO.VI.RO. CONSORZIO VIVAISTICO ROMAGNOLO,Cervia, Italy,['Nursery - Plant Nursery'],+390544994712,+390544994501,coviro@coviro.it,www.coviro.it,-,-,-
COMPAGNIA INTERNAZIONALE AGROALIMENTARE S.r.l,Monselice, Italy,"['Exporter - Export - Import', 'Importer - Export - Import', 'Nursery - Fertilizer']",-,-,societa.cia.srl@gmail.com,-,-,-,-
CONSORCIO VIVEROS DE CHILE S.A.,Curicó, Chile,"['Exporter - Exporter', 'Nursery - Plant Nursery', 'Producer - Producer', 'Wholesaler - Producer']",+56752544123,+56752544120,cvchilesa@cvchile.cl,www.cvchile.cl,-,+5681591592,-
COOPERATIVA CAMPOEJIDO,El Ejido, Spain,['Nursery - Fertilizer'],+34950485866,+34950488210,-,www.campoejido.com,-,-,-
COOPERATIVA HECA,Santa Maria de Aguila, Spain,['Nursery - Seeds'],+34950580422,+34950583013,ana.herrada@gmail.com,-,-,+34615339591,-
CORA SEEDS S.r.l.,Cesena, Italy,['Nursery - Seeds'],+390547380612,+390547385166,andreacasadei@coraseeds.com,www.coraseeds.com,-,+393498815002,-
COSUPRAL S.C.A.,Almeria, Spain,['Nursery - Fertilizer'],+34950277406,+34950239712,-,-,-,-,-
COT INTERNATIONAL,St-Gilles, France,['Nursery - Plant Nursery'],+33466280551,+33466700923,cot.international@wanadoo.fr,www.cot-international.net,-,+33681400282,-
COTR S.a.r.l.,"Megrine Riadh, Ben Arous", Tunisia,"['Exporter - Export - Import', 'Importer - Export - Import', 'Nursery - Fertilizer', 'Producer - Producer', 'Wholesaler - Producer', 'Wholesaler - Wholesale']",+21671434310,+21671433318,-,-,-,-,-
COTUGRAIN S.A.,"Megrine Riadh, Ben Arous", Tunisia,"['Nursery - Fertilizer', 'Nursery - Seeds']",+21671426644,+21671426313,cotugrain@gnet.tn,www.cotugrain.com,-,-,-
COVIL CONSORZIO VIVAISTI LUCANI,Scanzano Jonico, Italy,['Nursery - Plant Nursery'],-,-,vitovitelli@tiscali.it,www.covilvivai.com,-,+393392511629,-
CRA-FRF CONSIGLIO PER LA RICERCA E SPERIMENTA ZIONE IN AGRICOLTURA - FORLÌ,Forlì, Italy,['Nursery - Seeds'],+39054389077,+39054389428,alessandro.liverani@entecra.it,www.entecra.it,-,-,-
DAINESE EMILIO,Sant'Angelo di Piove di Sacco, Italy,['Nursery - Plant Nursery'],-,-,-,-,-,-,-
DAINESE LORENZO ALCIDE,Saonara, Italy,['Nursery - Plant Nursery'],+390498797456,+39049640092,-,-,-,-,-
DAINESE UMBERTO ZEFFIRO,Saonara, Italy,['Nursery - Plant Nursery'],-,-,-,-,-,-,-
DAL PANE VIVAI,Castel Bolognese, Italy,['Nursery - Plant Nursery'],+390546653584,+39054655300,dalpane@dalpanevivai.com,www.dalpanevivai.com,-,+393482341748,-
DAL PANE VIVAI ARGENTINA S.r.l.,Mar del Plata, Argentina,"['Exporter - Exporter', 'Nursery - Plant Nursery', 'Producer - Producer', 'Wholesaler - Producer']",-,-,info@dalpanevivai.com.ar,www.dalpanevivai.com.ar,-,-,-
DAL PANE VIVAI CHILE S.A.,Curicó, Chile,"['Exporter - Exporter', 'Nursery - Plant Nursery', 'Producer - Producer', 'Wholesaler - Producer']",+56752545276,+56752545274,dalpane@dalpanevivai.com,www.dalpanevivai.com,-,-,-
DALMONTE GUIDO & VITTORIO Soc. Agr. s.s.,Brisighella, Italy,['Nursery - Plant Nursery'],+39054680061,+39054681037,dalmonte@dalmontevivai.com,www.dalmontevivai.com,-,-,-
DAVIPLANT S.S. DEI F.LLI DAVI,Lusia, Italy,['Nursery - Seeds'],+390425607631,+390425607118,info@daviplant.com,www.daviplant.eu,-,-,-
DAVODEAU-LIGONNIERE/SOLEIL D'ANJOU,Angers, France,"['Nursery - Plant Nursery', 'Producer - Producer and trader', 'Wholesaler - Producer and trader']",+33241600613,+33241348383,dalicom@dalicom.com,www.dalicom.com,-,+33611271659,-
DE RUITER SEEDS Sp. z o.o.,Warszawa, Poland,['Nursery - Seeds'],+48223956501,+48223956500,agnieszka.sawicka@monsanto.com,www.deruiter.com.pl,-,+48601311460,-
DELBARD PEPINIERES S.A.,Malicorne, France,['Nursery - Plant Nursery'],+33470645861,+33470648735,damien.lauras@georgesdelbard.com,www.delbard.com,-,+33680331475,-
DELFLAND NURSERIES LTD,"Doddington, Cambs", United Kingdom,['Nursery - Plant Nursery'],+441354741200,+441354740553,-,www.delfland.co.uk,-,-,-
DELTA AGRAR d.o.o.,Beograd, Serbia,"['Exporter - Export - Import', 'Importer - Export - Import', 'Nursery - Fertilizer']",+381112012337,+381112012333,julka.toskic@deltaagrar.rs,www.deltaagrar.rs,-,+381648344254,-
DI PASQUALI MICHELE,Ravanusa, Italy,['Nursery - Fertilizer'],-,-,-,-,-,+393394783803,-
DU ROI INTEGRATED PEST MANAGEMENT,Letsitele, South Africa (Republic of South Africa),['Nursery - Fertilizer'],-,-,contact@duroibugs.co.za,www.duroibugs.co.za,-,+27153451890,-
E.U.R.L. VALOIS DISTRIBUTION,Villers Cotterets, France,['Nursery - Plant Nursery'],+33323727552,+33323965650,pepival@pepival.com,www.cameo-europe.com,-,-,-
EGYPTIAN GROUP FOR DEVELOPMENT (E.G.D),Haram-Giza, Egypt,"['Exporter - Exporter', 'Nursery - Fertilizer', 'Producer - Producer and trader', 'Wholesaler - Producer and trader']",-,+201001051196,egd-a.waly@link.net,-,-,+201001051195,-
EKO-GRAM,Lublin, Poland,['Nursery - Fertilizer'],-,-,ekogram@poczta.onet.pl,-,-,+48508290141,-
ELSNOBER AGRICULTURAL EQUIPMENT IMPORT CO.,Benghazi, Libya,"['Exporter - Export - Import', 'Importer - Export - Import', 'Nursery - Plant Nursery']",-,-,bashir@elsnober.com,-,-,-,-
EMINENT FOOD B.V.,Poeldijk, Holland - The Netherlands,"['Exporter - Export - Import', 'Importer - Export - Import', 'Nursery - Seeds']",+31174445579,+31174445570,jan@eminentfood.nl,www.eminentfood.nl,-,+31654331698,-
ENERJI TARIM LTD.STI.,Antalya, Turkey,['Nursery - Seeds'],+902424343604,+902424343537,-,www.yukseltohum.com,-,-,-
ENZA ZADEN BEHEER B.V.,Enkhuizen, Holland - The Netherlands,['Nursery - Seeds'],+31228315960,+31228350100,-,www.enzazaden.com,-,-,-
ERIC SCHWEIZER AG,Thun, Switzerland,['Nursery - Seeds'],+41332275758,+41332275757,info@ericschweizer.ch,www.ericschweizer.ch,-,-,-
ESASEM S.p.a.,Casaleone, Italy,['Nursery - Seeds'],+390442330834,+390442331600,fdare@esasem.com,www.esasem.com,-,+393356978565,-
EUROFINS - (SEDE DI BOLOGNA),San Giorgio di Piano, Italy,['Nursery - Fertilizer'],+390516655119,+390516650637,-,www.eurofins.it,-,-,-
EUROINVEST ITALIA S.r.l.,Stornara, Italy,['Nursery - Plant Nursery'],-,-,euroinvestitalia@libero.it,-,-,-,-
EUROSEMILLAS S.A.,Barquisimeto, Venezuela,['Nursery - Seeds'],+582512320815,+582512322871,-,-,-,-,-
FAIRPLANT B.V.,Luttelgeest, Holland - The Netherlands,['Nursery - Plant Nursery'],+31527202604,+31527202377,info@fairplant.nl,www.fairplant.nl,-,-,-
FENO S.r.l.,Egna, Italy,['Nursery - Plant Nursery'],+390471821507,+390471813336,albert.weifner@feno.it,www.feno.it,-,+39335207742,-
FERTIREV S.r.l.,Torino, Italy,"['Auxiliary Industries - Equipment and services', 'Nursery - Fertilizer']",+390115185894,+390115156611,domenico.terenzio@fertirev.it,www.fertirev.it,-,+393933827621,-
FIRMA HANDLOWO-ZAOPATRZENIOWA AGRONOM,Parczew, Poland,"['Auxiliary Industries - Industry - Production machinery', 'Nursery - Seeds']",+48833551421,+48833551422,pawel@agronom.com.pl,www.agronom.com.pl,-,-,-
FLOVEG GmbH,Rheinbach, Germany,['Nursery - Seeds'],+4924417775442,+4924417775441,alexander.may@floveg.com,www.floveg.de,-,-,-
FRUITGROWING EQUIPMENT AND SERVICE S.r.l.,Ferrara, Italy,['Nursery - Seeds'],+390532772241,+390532772288,fruitgrowing@fruitgrowing.it,www.zanzifruit.it,-,+393355669884,-
FRUMENTA s.r.o.,Vysike Myto, Czech Republic,['Nursery - Seeds'],-,-,frumenta@frumenta.cz,www.frumenta.cz,-,+420603269904,-
GÄRTNEREI JÜRGEN UND ROLF BULLMANN KG,Frankfurt/Main, Germany,['Nursery - Plant Nursery'],+496949084871,+4969447637,rolf@bullmann-frankfurt.de,www.bullmann-frankfurt.de,-,+491713512458,-
GAUTIER SEMENCES,Eyragues, France,['Nursery - Seeds'],+33490240250,+33490240240,commercial@gautiersemences.com,www.gautiersemences.com,-,-,-
GAUTIER SEMENTI,Cesena, Italy,['Nursery - Seeds'],+39054729963,+39054729066,gautieritalia@gautiersementi.com,-,-,+393392896722,-
GAVRISH,Moscow, Russian Federation,['Nursery - Seeds'],+74997608475,+74997608030,abbssaid15@yahoo.com,www.gavrish.ru,-,-,-
GEDENRYDS FRUKT AB,Kristianstad, Sweden,['Nursery - Plant Nursery'],-,-,-,-,-,+46706055844,-
GENESIS SEEDS LTD.,Rehovot, Israel,['Nursery - Seeds'],+97289318967,+97289318966,isaacnir@genesisseeds.co.il,www.genesisseeds.co.il,-,-,-
GEOPLANT VIVAI S.r.l. Soc. Agr.,Savarna, Italy,['Nursery - Plant Nursery'],+390544532861,+390544533269,info@geoplantvivai.com,www.geoplantvivai.com,-,-,-
GOSPODARSTWO SZKOLKARSKIE WIECZOREK,Paczkowo, Poland,['Nursery - Plant Nursery'],-,-,stanislaw.wieczorek@wieczorek.agro.pl,www.wieczorek.agro.pl,-,+48604710162,-
GRAINES VOLTZ,Brain-sur-Authion, France,['Nursery - Seeds'],+33241545715,+33241545704,info@grainesvoltz.com,www.graines-voltz.com,-,+33628947078,-
GRAPERY INC.,Bakersfield, United States of America,"['Nursery - Plant Nursery', 'Producer - Producer', 'Wholesaler - Producer']",-,-,info@grapery.biz,www.grapery.biz,-,-,-
GREEB TECHNOLOGY CHP 3 TOO,Karagandy, Kazakhstán,['Nursery - Plant Nursery'],-,-,green_krg@mail.ru,-,-,-,-
GREEN LAND CO. FOR IMPORTING AGRI. MATERIALS & MACHINERIES,Tripoli, Libya,['Nursery - Seeds'],-,-,walidirsan@yahoo.com,-,-,-,-
GREMIZZI SERGIO Az. Agricola,Asola, Italy,['Nursery - Plant Nursery'],+390376710901,+390376719015,info@gremizzi.it,www.gremizzi.com,-,-,-
GRES LLP TOPARSKIE GREENHOUSES,Topar, Kazakhstán,['Nursery - Plant Nursery'],-,-,aleksandr_zabirov@mail.ru,-,-,-,-
GRIBA NURSERY & FRUIT DIVISION,Terlano, Italy,"['Nursery - Plant Nursery', 'Services - Consultants', 'Wholesaler - Wholesale']",+390471258244,+390471258227,info@griba.it,www.griba.it,-,-,-
GRODAN B.V.,Roermond, Holland - The Netherlands,"['Auxiliary Industries - Equipment and services', 'Nursery - Fertilizer']",+31475353716,+31475353020,info@grodan.nl,www.grodan.nl,-,-,-
GRODAN INC.,"Milton, Ontario", Canada,"['Auxiliary Industries - Equipment and services', 'Nursery - Fertilizer']",+19056361901,+19056360611,info@grodan.com,www.grodan.com,-,-,-
GRODAN Sp. z o.o.,Warszawa, Poland,"['Auxiliary Industries - Equipment and services', 'Nursery - Fertilizer']",+48228430356,+48228430527,poland.office@grodan.com,www.grodan.com,-,-,-
GRODURVORUR ehf.,Reykjavik, Iceland,['Nursery - Fertilizer'],+3545403311,+3545403310,gislisig@grodur.is,www.grodur.is,-,+3548643339,-
GROW-TECH EGYPT,Cairo, Egypt,"['Exporter - Export - Import', 'Importer - Export - Import', 'Nursery - Fertilizer']",+20224021878,+20224145308,export@growtech-egypt.com,www.growtech-peanut.com,-,+201006021616,-
GRUBER GENETTI ANDREAS BAUMSCHULE - VIVAIO,Lana, Italy,['Nursery - Plant Nursery'],+390473557040,+390473568004,info@gruber-genetti.it,www.gruber-genetti.it,-,-,-
GRUPO INDALVA S.L. - DISPER,Alicante, Spain,['Nursery - Fertilizer'],+34965227739,+34965984045,info@disper.info,www.disper.info,-,-,-
H.A.C. (HOLLAND AGRO CONNECTION),Emmeloord, Holland - The Netherlands,['Nursery - Seeds'],+31527613871,+31527612781,alex@hollandagroconnection.com,www.hollandagroconnection.com,-,-,-
HÄBERLI OBST- UND BEERENZENTRUM AG,Neukirch-Egnach, Switzerland,['Nursery - Plant Nursery'],+41714747080,+41714747070,info@haeberli-beeren.ch,www.haeberli-beeren.ch,-,-,-
HARGREAVES PLANTS LTD,"Spalding, Lincs", United Kingdom,['Nursery - Plant Nursery'],+441406366321,+441406366300,sales@hargreavesplants.com,www.hargreavesplants.com,-,-,-
HAZERA SEEDS,Antalya, Turkey,['Nursery - Seeds'],+902422473643,+902422476114,-,-,-,+90545656375,-
HILD SAMEN GmbH,Marbach/Neckar, Germany,['Nursery - Seeds'],+497144847399,+497144847311,hild@bayer.com,www.hildsamen.de,-,-,-
HILL PLANT TRADE,Beograd, Serbia,"['Nursery - Plant Nursery', 'Producer - Producer and trader', 'Wholesaler - Producer and trader']",-,-,b.stojanovic@hotmail.com,-,-,-,-
HISHTIL NURSERIES,Moshav Nehalim, Israel,['Nursery - Plant Nursery'],+97239373150,+97239373141,elo@hishtil.com,www.hishtil.com,-,+972505296059,-
HORTICOOP ANDINA S.A.,Quito, Ecuador,['Nursery - Fertilizer'],+59322269105,+59322269106,info@horticoop.nl,www.horticoop.com,-,-,-
IBERSEM LDA,"Amadora, Lisboa", Portugal,['Nursery - Seeds'],-,-,ibersem@ibersem.com,www.ibersem.com,-,-,-
IKASIDO GLOBAL GROUP B.V.,Naaldwijk, Holland - The Netherlands,['Nursery - Seeds'],+31842266463,+31174200091,p.infoemail@gmail.com,www.ikasido.com,-,+31651811819,-
INTERGROW SEEDS N.V.,Aalter, Belgium,"['Nursery - Fertilizer', 'Nursery - Seeds']",-,-,info@koppert.nl,www.koppert.com,-,+32493742820,-
INTERNATIONAL PLANT SELECTION,Montelimar, France,['Nursery - Plant Nursery'],+33475518041,+33475909289,alex.ipsiberica@gmail.com,www.ips-plant.com,-,+33631199795,-
IOCOLI VIVAI Az. Agr.,Sant'Arcangelo, Italy,['Nursery - Plant Nursery'],+390973618905,+390973619344,info@iocolivivai.it,www.iocolivivai.it,-,-,-
ISI SEMENTI S.p.A.,Fidenza, Italy,['Nursery - Seeds'],+390524524255,+390524528439,isi@isisementi.com,www.isisementi.com,-,-,-
ISPEMAR S.C.A.,La Mojonera, Spain,['Nursery - Fertilizer'],-,-,-,www.ispemar.com,-,+34649971596,-
ITALFRUIT OOD,Pazardzhik, Bulgaria,"['Exporter - Exporter', 'Nursery - Plant Nursery']",+35935672666,+35935672676,nurseries_tisselli@abv.bg,-,-,+359889816303,-
JUNGNICKEL F. GmbH & CO. KG,Neuss, Germany,"['Exporter - Export - Import', 'Importer - Export - Import', 'Nursery - Plant Nursery']",+49213150228,+492131568560,info@fjungnickel.de,www.fjungnickel.de,-,+491722111549,-
KANEPPELE R. & CO.,Termeno sulla Strada del Vino, Italy,['Nursery - Plant Nursery'],+390471810997,+390471810671,info@kaneppele.com,www.kaneppele.com,-,-,-
KANET AGRO DOOEL,Skopje, Macedonia,"['Nursery - Plant Nursery', 'Producer - Producer and trader', 'Wholesaler - Producer and trader']",+38923213096,+38923238353,info@kanet-agro.com,www.kanet-agro.com,-,+38970306751,-
KLARSKOV & SON ApS,Hvidovre, Denmark,['Nursery - Plant Nursery'],+4536784015,+4536784006,klarskovgartneri@mail.dk,www.klarskovgartneri.dk,-,+4525133601,-
KOPPERT B.V.,Berkel en Rodenrijs, Holland - The Netherlands,['Nursery - Fertilizer'],+31105115203,+31105140444,info@koppert.com,www.koppert.com,-,-,-
KOPPERT BELGIE BVBA,St-Katelijne-Waver, Belgium,['Nursery - Fertilizer'],-,-,info@koppert.nl,www.koppert.com,-,+32495530444,-
KOPPERT BIOLOGICAL SYSTEMS INC.,Romulus, United States of America,['Nursery - Fertilizer'],+17346413793,+18009288827,asktheexpert@koppertonline.com,www.koppertonline.com/home.asp,-,-,-
KOPPERT CANARIAS S.L.,Arico el Nuevo, Spain,['Nursery - Fertilizer'],+34922706407,+34922160948,-,-,-,-,-
KOPPERT CANARIAS S.L.,La Aldea de San Nicolas, Spain,['Nursery - Fertilizer'],+34928759697,+34928884006,-,-,-,-,-
KOPPERT CHILE S.A.,Quillota, Chile,['Nursery - Fertilizer'],-,-,-,www.koppert.cl,-,+5693597712,-
KOPPERT ECUADOR CIA. LTDA,Quito, Ecuador,['Nursery - Fertilizer'],+59322363144,+59322363130,info@koppert.es,www.koppert.ec,-,+59397013924,-
KOPPERT ESPAÑA S.L.,La Mojonera, Spain,['Nursery - Fertilizer'],+34902431395,+34902489900,info@koppert.es,www.koppert.es,-,-,-
KZ KRKA z.o.o.,Novo mesto, Slovenia,"['Exporter - Export - Import', 'Importer - Export - Import', 'Nursery - Fertilizer', 'Producer - Producer and trader', 'Wholesaler - Producer and trader']",+38673931840,+38673931806,info@kz-krka.si,www.kz-krka.si,-,-,-
L'ORTOLANO S.r.l.,Cesena, Italy,['Nursery - Plant Nursery'],+390547639280,+390547632161,info@lortolano.com,www.lortolano.com,-,-,-
L.O.G. A/S,Oslo, Norway,['Nursery - Fertilizer'],+4781520101,+4781520100,bestilling@log.no,www.log.no,-,-,-
LABORO S.A.,Agrinio, Greece,['Nursery - Seeds'],+302641027651,+302641039346,-,-,-,-,-
LAMBOSEED S.r.l.,Sant'Agata Bolognese, Italy,['Nursery - Seeds'],+39051963491,+39051963033,info@lamboseeds.com,www.lamboseeds.it,-,+393315249901,-
LIGOGI S.r.l.,Bolzano, Italy,['Nursery - Plant Nursery'],+390471469467,+390471402101,ligogi@dnet.it,-,-,-,-
LIMAGRAIN UK LTD.,"Witham St Hughs, Lincoln", United Kingdom,['Nursery - Seeds'],+441522869703,+441522861300,nick.rodgers@limagrain.co.uk,www.limagrain.co.uk,-,-,-
LOS ANDES FRUIT S.A.,Curicó, Chile,"['Exporter - Exporter', 'Nursery - Plant Nursery', 'Producer - Producer', 'Wholesaler - Producer']",-,-,viverosur@viverosur.com,www.viverosur.com,-,-,-
LOS JUANES S.A.,Cipolletti, Argentina,"['Exporter - Export - Import', 'Importer - Export - Import', 'Nursery - Plant Nursery']",-,+542994774216,info@larsa.com.ar,www.losjuanes.com.ar,-,-,-
MALLEIER WALTER,Lana, Italy,['Nursery - Plant Nursery'],+390473564618,+390473563921,info@baumschule-malleier.it,www.baumschule-malleier.it,-,-,-
MARALDI SEMENTI,Cesena, Italy,['Nursery - Seeds'],+390547302410,+390547303292,info@maraldisementi.it,www.maraldisementi.it,-,+393486506410,-
MARCONI VIVAI Soc. Agr. S.S.,Malavicina di Roverbella, Italy,['Nursery - Plant Nursery'],+390376696057,+390376696707,info@marconivivai.it,www.marconivivai.it,-,+393356366461,-
MAZZONI VIVAI Soc. Agr. s.s.,Tresigallo, Italy,['Nursery - Plant Nursery'],+390533607538,+390533607511,infoucraina@vivaimazzoni.com,www.vivaimazzoni.com,-,+39335282272,-
MCCANN NURSERIES,"Dundalk, Co Louth", Ireland,['Nursery - Plant Nursery'],+353429331685,+353429335451,info@totalproduce.com,www.totalproduce.com,-,-,-
MEGE TARIM SANAYI VE TICARET LTD.STI.,Antalya, Turkey,['Nursery - Fertilizer'],+902423170710,+902423170784,info@megetarim.com.tr,www.megetarim.com.tr,-,-,-
MEMA GmbH,Vilpiano, Italy,['Nursery - Plant Nursery'],+390471679923,+390471677178,info@hanshuber.it,www.hanshuber.it,-,-,-
MERIDIEM SEEDS,Torre Pacheco, Spain,['Nursery - Seeds'],+3490868079102,+34868049965,ufficio@meridiemseeds.it,www.meridiemseeds.com,-,+393298474284,-
MICO VIVEROS Y FRUTAS C.B.,Jumilla, Spain,['Nursery - Plant Nursery'],-,-,mico@laalqueriadejumilla.com,www.laalqueriadejumilla.com,-,+34676495343,-
MICRO PLANT,Revello, Italy,['Nursery - Plant Nursery'],+390175259991,+39017575382,-,-,-,+393338686366,-
MICROMIX PLANT HEALTH LTD,"Nottingham, Notts", United Kingdom,['Nursery - Fertilizer'],+441949861061,+441949861060,-,www.micromix.com,-,+447770780747,-
MIRETTI VIVAI di MIRETTI DARIO,Saluzzo, Italy,['Nursery - Plant Nursery'],-,+39017571212,-,-,-,+393356970852,-
MONSANTO AGRICOLTURA ITALIA S.p.A,Parma, Italy,['Nursery - Seeds'],+390521607352,+390521398411,luca.lombardi@seminis.com,www.seminis.it,-,-,-
MONSANTO AGRICOLTURA ITALIA S.p.A,Milano, Italy,['Nursery - Seeds'],+390284780181,+3902847801,simona.parenti@seminis.com,www.seminis.it,-,-,-
MONSANTO AGRICULTURA ESPANA S.L.,Madrid, Spain,['Nursery - Seeds'],+34950182143,+3490655659163,maria.jesus.jimenez@monsanto.com,www.monsanto.com,-,+34630807236,-
MONSANTO DE RUITER,Bergschenhoek, Holland - The Netherlands,['Nursery - Seeds'],+31105292400,+31105292222,sales@deruiterseeds.nl,www.deruiterseeds.nl,-,-,-
MONSANTO HUNGARIA Kft.,Budapest, Hungary,['Nursery - Seeds'],+3612893131,+3612893100,-,www.seminis.hu,-,-,-
MOSHE MUSSAFI & SONS,Tel Aviv, Israel,['Nursery - Seeds'],-,-,musafi-y@bezeqint.net,www.mussafi.com,-,-,-
NABAT AGRICULTURAL & TRADING CO. LTD,Amman, Jordan,"['Nursery - Fertilizer', 'Producer - Producer', 'Wholesaler - Producer']",+96265514389,+96265514395,info@nabat.com,www.nabat.com,-,+962795520294,-
NAMDHARI FARM FRESH PVT. LTD,Bangalore, India,"['Exporter - Exporter', 'Nursery - Seeds']",+918028602168,+918028602167,info@namdharifresh.com,www.namdharifresh.com,-,+919845381817,-
NATIONAL AMMONIA & CHEMICAL INDUSTRIES COMPANY,Amman, Jordan,['Nursery - Fertilizer'],+96264659944,+96264601432,-,-,-,-,-
NOVO SEED,"Van Nuys - Los Angeles, CA", United States of America,['Nursery - Seeds'],-,-,helensmith776@yahoo.com,-,-,+12064581285,-
NUNHEMS HOLLAND B.V.,Haelen, Holland - The Netherlands,['Nursery - Seeds'],+31475599223,+31475599222,sales@nunhems.com,www.nunhems.com,-,-,-
NUNHEMS ITALY S.r.l.,Sant'Agata Bolognese, Italy,['Nursery - Seeds'],+390516817400,+390516817411,ivan.dallapiazza@bayer.com,www.nunhems.com,-,+393480159820,-
NUNHEMS SPAIN S.A.,Picanya, Spain,['Nursery - Seeds'],+34961591720,+34961594210,nunhems.customerservice.es@bayer.com,www.nunhems.es,-,-,-
OGROFOL Sp. z o.o.,Wloszakowice, Poland,['Nursery - Fertilizer'],-,+48655370789,-,www.ogrofol.pl,-,+48601574201,-
ONCA TARIM SAN.TUR.TIC.LTD.STI.,Antalya, Turkey,['Nursery - Fertilizer'],+902423120113,+902423110123,info@oncatarim.com,www.oncatarim.com,-,-,-
ORERO TRADING S.L.,Villaverde del Rio, Spain,"['Nursery - Plant Nursery', 'Producer - Producer and trader', 'Wholesaler - Producer and trader']",+34955737156,+34955736762,unexasevilla@arrakis.es,www.viveros-orero.com,-,-,-
PATATAS BELTRAN S.L.,Daya Vieja, Spain,"['Exporter - Exporter', 'Nursery - Seeds', 'Producer - Producer', 'Transport - Transports', 'Wholesaler - Producer', 'Wholesaler - Wholesale']",+34966714744,+34966713397,carina@patatasbeltran.com,www.patatasbeltran.com,-,-,-
PAVONI & C. S.p.A.,Catania, Italy,"['Auxiliary Industries - Equipment and services', 'Nursery - Seeds']",+39095654512,+390957931440,pavonispa@pavonispa.it,www.pavonispa.it,-,-,-
PEPINIERES ESCANDE,St-Vite, France,['Nursery - Plant Nursery'],+33553408726,+33553712213,escande.trees@wanadoo.fr,www.pepinieres-escande.com,-,+33614496700,-
PICO - OKANAGAN PLANT IMPROVEMENT CORPORATION,"Summerland, BC", Canada,['Nursery - Plant Nursery'],+12504947472,+12504040088,info@picocorp.com,www.picocorp.com,-,-,-
PLANASA S.A.,Valtierra, Spain,"['Exporter - Exporter', 'Nursery - Plant Nursery']",+34948867230,+34948867700,mmarsais@planasa.com,www.planasa.com,-,+34687899518,-
PLANITALIA S.r.l.,Policoro, Italy,['Nursery - Plant Nursery'],+390835902133,+390835902132,planitaliasrl@tiscali.it,www.planitaliasrl.com,-,-,-
PLANTKO TAR. ÜR. SAN. TIC. LTD.STI.,Mersin, Turkey,"['Exporter - Exporter', 'Nursery - Plant Nursery']",-,+903242390650,-,-,-,-,-
PREVAR LTD.,Hastings, New Zealand,['Nursery - Plant Nursery'],+6468352531,+6468352530,bme@prevar.co.nz,www.prevar.co.nz,-,-,-
PRIMPLANTS S.A.,Lonay, Switzerland,['Nursery - Plant Nursery'],+41218041151,+41218041153,-,www.primplants.ch,-,-,-
PROMAG MABROUKA - SOCIETE DE PROMOTION AGRICOLE MABROUKA,"Khelidia, Ben Arous", Tunisia,"['Exporter - Exporter', 'Nursery - Plant Nursery', 'Producer - Producer and trader', 'Wholesaler - Producer and trader']",+21671366811,+21671366812,info@pepinieremabrouka.com,www.pepinieremabrouka.com,-,+21625882943,-
PROMETEO 2000 S.r.l.,Modugno, Italy,['Nursery - Fertilizer'],+390805324356,+390805328099,-,www.prometeo2000.net,-,+393355601398,-
PROSEMILLAS,Sanarate, Guatemala,['Nursery - Seeds'],+50223816400,+50223816464,info@productoradesemillas.com,www.productoradesemillas.com,-,-,-
PSEEDCO LTD,"Perth, Perthshire", United Kingdom,['Nursery - Seeds'],+441828686384,+441828687025,post@pseedco.co.uk,www.pseedco.co.uk,-,+447836250054,-
RAIFFEISEN WAREN-ZENTRALE RHEIN-MAIN eG,Köln - Raderberg, Germany,['Nursery - Fertilizer'],+492211638254,+4922116380,tobias.hofmann@rwz.de,www.rwz.de,-,-,-
REDEVA LTD,"Surbiton, Surrey", United Kingdom,"['Nursery - Plant Nursery', 'Nursery - Seeds']",+442083993499,+442083901133,info@totalworldfresh.com,www.totalproduce.com,-,-,-
REFLEX CENTRO AMERICA S.A.,San José, Costa Rica,['Nursery - Fertilizer'],-,-,ideas@ideavelop.biz,www.reflexca.com,-,+5068418125,-
RICHEL S.A.,Eygalières, France,['Nursery - Plant Nursery'],+33490951293,+33490951468,info@richel.fr,www.richel.fr,-,-,-
RIJK ZWAAN ARGENTINA S.A.,Buenos Aires, Argentina,['Nursery - Seeds'],+541147834478,+541147884723,rzargentina@rijkzwaan.com.ar,www.rijkzwaan.com.ar,-,-,-
RIJK ZWAAN ITALIA S.r.l.,Calderara di Reno, Italy,['Nursery - Seeds'],+390514149308,+39051729448,l.bonfiglioli@rijkzwaan.it,www.rijkzwaan.it,-,-,-
RIJK ZWAAN PRODUTOS AGRICOLAS LDA,"Almada, Setúbal", Portugal,['Nursery - Seeds'],+351212721269,+351212744885,m.ribeiro@rijkzwaan.pt,www.rijkzwaan.pt,-,-,-
RIJK ZWAAN SAAMENZUCHT UND SAAMENHANDLUNG GmbH,Welver, Germany,['Nursery - Seeds'],+492384501133,+4923845010,m.berz@rijkzwaan.de,www.rijkzwaan.de,-,-,-
"RIJK ZWAAN SCANDINAVIA, BALTICS AND ICELAND GmbH",Odense S, Denmark,['Nursery - Seeds'],-,-,rijkzwaan@mail.dk,www.rijkzwaan.dk,-,+4521226895,-
RIJK ZWAAN UK LTD,"Pocklington, York", United Kingdom,['Nursery - Seeds'],+441759322138,+441759305830,dougie@rijkzwaan.co.uk,www.rijkzwaan.co.uk,-,-,-
RIJK ZWAAN Welver Gemusezuchtung & Saatg,Berlin, Germany,"['Nursery - Seeds', 'Wholesaler - Wholesale']",+493024721825,+493024721823,m.neumann@rijkzwaan.de,www.rijkzwaan.com,-,-,-
RIJK ZWAAN ZAADTEELT & ZAADHANDEL B.V.,De Lier, Holland - The Netherlands,['Nursery - Seeds'],+31174518243,+31174532300,v.van.wolferen@rijkzwaan.nl,www.rijkzwaan.nl,-,+31651646299,-
ROSARNO ROCCO,Candidoni, Italy,"['Exporter - Export - Import', 'Exporter - Exporter', 'Fruit and Vegetable Processing - Fruit processing industry', 'Importer - Export - Import', 'Importer - Importer', 'Nursery - Plant Nursery', 'Producer - Direct from farm', 'Producer - Producer and trader', 'Retailer - Chain stores', 'Retailer - Supermarket', 'Retailer - Supermarket', 'Transport - Logistics', 'Wholesaler - Producer and trader', 'Wholesaler - Wholesale']",-,-,roccorosarno3@gmail.com,-,-,-,-
S.A.I.S. Società Agricola Italiana Sementi,Cesena, Italy,['Nursery - Seeds'],+390547384089,+390547384250,commerciale@saissementi.it,www.saissementi.it,-,-,-
S.A.R.L. DU TILLEUL,Châteaurenard Cedex, France,"['Nursery - Plant Nursery', 'Producer - Producer', 'Wholesaler - Producer']",+33490240349,+33490240340,sarl.letilleul@sfr.fr,-,-,-,-
SAINT REMY BASILIC,St-Rémy-de-Provence, France,['Nursery - Plant Nursery'],+33490924713,+33432600423,julienaubert@wanadoo.fr,www.saintremy-basilic.com,-,-,-
SAKATA CHILE S.A.,Nogales, Chile,['Nursery - Seeds'],+56332293905,+56332293900,-,www.sakata.cl,-,-,-
SAKATA JORDAN LTD,Amman, Jordan,['Nursery - Seeds'],+96265160473,+96265160742,waleed.allan@sakata-eu.com,www.sakata-eu.com,-,-,-
SAKATA POLSKA Sp. z o.o.,Nieporet, Poland,['Nursery - Seeds'],+48227673534,+48227673535,sakata@sakata.pl,www.sakata-eu.com,-,-,-
SAKATA SEED DE MEXICO S.A. DE C.V.,Tesistán, Mexico,['Nursery - Seeds'],+5213338970823,+5213338970776,info@sakata.com.mx,www.sakata.com.mx,-,-,-
SAKATA SEED IBERICA S.L.,Valencia, Spain,['Nursery - Seeds'],+34963563404,+34963563427,javier.bernabeu@sakata-eu.com,www.sakata-eu.com,-,-,-
SAKATA UK LTD,"Boston, Lincolnshire", United Kingdom,['Nursery - Seeds'],+441205460327,+441205462810,stuart.cox@sakata-eu.com,www.sakata-eu.com,-,-,-
SAKATA VEGETABLES EUROPE AO,Moscow, Russian Federation,['Nursery - Seeds'],-,+74957149744,-,www.sakata-eu.com,-,+74957670947,-
SAKATA VEGETABLES EUROPE S.A.S.,Rijen, Holland - The Netherlands,['Nursery - Seeds'],+31235543219,+31235543207,-,www.sakata-eu.com,-,+31653730188,-
SAKATA VEGETABLES EUROPE S.A.S.,Uchaud, France,['Nursery - Seeds'],+33466717509,+33466717500,bas.janssen@sakata-eu.com,www.sakata-eu.com,-,-,-
SALVADOR AGUILAR TENDERO S.L.,Aguas Nuevas, Spain,['Nursery - Fertilizer'],+34967576055,+34967580019,-,-,-,+34667777807,-
SALVI VIVAI,Ferrara, Italy,['Nursery - Plant Nursery'],+390532785531,+390532785533,silvia@salvi.it,www.salvivivai.it,-,-,-
SANTA MARIA DE AGUILA S.C.A.,Santa Maria de Aguila, Spain,['Nursery - Fertilizer'],+34950581889,+34950581715,-,-,-,-,-
SATIVA SEEDS & SERVICES S.r.l.,Cesena, Italy,['Nursery - Plant Nursery'],+390547639056,+390547380310,sativa@sativa.it,www.sativa.it,-,-,-
SEA TRADE EUROPE LTD,London, United Kingdom,"['Exporter - Export - Import', 'Importer - Export - Import', 'Nursery - Plant Nursery', 'Wholesaler - Wholesale']",+442081271687,+442085584328,barry@seatradeeurope.co.uk,www.seatradegroup.net,-,-,-
SEEDLAND LTD,Lonay, Switzerland,['Nursery - Seeds'],+41218041121,+41218049141,-,www.uniagro.ch,-,+41796987601,-
SEIPASA,Huesca, Spain,['Nursery - Fertilizer'],+34974253298,+34974253433,laura@seipasa.com,www.seipasa.com,-,-,-
SEMILLAS FITO ITALIA S.r.l.,Padova, Italy,['Nursery - Seeds'],-,-,italia@semillasfito.com,www.semillasfito.com,-,-,-
SEMILLAS FITO S.A.,Barcelona, Spain,['Nursery - Seeds'],+34933036373,+34933036360,info@semillasfito.com,www.semillasfito.es,-,-,-
SEMILLAS SEMINIS S.A.,Las Condes, Chile,['Nursery - Seeds'],+56222002301,+56222002300,seminis.chile@seminis.com,www.seminis.com,-,-,-
SEMINIS VEGETABLE SEEDES DEUTSCHLAND GmbH,Neustadt/Rübenberge, Germany,['Nursery - Seeds'],+495032804111,+495032804040,Kundenservicede@seminis.com,www.seminis.de,-,-,-
SEMINIS VEGETABLE SEEDES S.A.,Barcelona, Spain,['Nursery - Seeds'],+34935680404,+34935762210,susana.benlloch@monsanto.com,www.monsanto.com,-,-,-
SEMINIS VEGETABLE SEEDES S.A.,São Paulo, Brazil,['Nursery - Seeds'],+551937059301,+551937059300,-,www.seminis.com,-,-,-
SEMINIS VEGETABLE SEEDS B.V.,Enkhuizen, Holland - The Netherlands,['Nursery - Seeds'],+31228357712,+31228357700,-,-,-,-,-
SG VIVAI di GIUSEPPE STABIA,Capaccio Scalo, Italy,['Nursery - Plant Nursery'],-,-,info@sgvivai.it,www.sgvivai.it,-,-,-
SHOURA GROUP CO. LTD,Cairo, Egypt,['Nursery - Fertilizer'],+20235702001,+20235391812,-,www.shouragroup.com,-,-,-
SHRIVARDHAN BIOTECH,Kolhapur, India,"['Exporter - Exporter', 'Nursery - Plant Nursery']",+912322252053,+912322252181,vardhan_b@bsnl.in,-,-,+919370145439,-
SJEMENARNA ZAGREB d.o.o.,Zagreb, Croatia (Hrvatska),['Nursery - Seeds'],+38512499508,+38512499502,valerija.puntar@sjemenarna.hr,www.sjmenarna.hr,-,-,-
SOC. VIVERO RANCAGUA LTDA.,Rancagua, Chile,"['Exporter - Exporter', 'Nursery - Plant Nursery', 'Producer - Producer', 'Wholesaler - Producer']",+56722257203,+56722251825,cvergara@terra.cl,www.viverorancagua.cl,-,-,-
SOFAPRO Spa,Alger, Algeria,['Nursery - Fertilizer'],+21321967667,+21321964686,-,www.sofaprodz.com,-,-,-
SOSEF NIC. B.V.,Honselersdijk, Holland - The Netherlands,"['Exporter - Exporter', 'Nursery - Seeds', 'Producer - Producer', 'Wholesaler - Producer']",+31174622656,+31174630214,info@sosef.nl,www.sosef.nl,-,-,-
SOUTHERN SEED S.r.l.,Vittoria, Italy,['Nursery - Seeds'],-,-,info@southernseed.it,www.southernseed.it,-,-,-
SPOJNIA HODOWLA I NASIENNICTWO OGRODNICZE Sp. z o.o.,Srem, Poland,['Nursery - Seeds'],+48612837435,+48612833427,-,www.nasiona-warzyw.pl,-,-,-
SRID,Alger, Algeria,"['Nursery - Fertilizer', 'Nursery - Seeds']",+21321310147,+21321310100,hamdane.tiab@srid-dz.com,www.srid-dz.com,-,+213770947320,-
STAR EXPORT,Mondragon, France,"['Exporter - Exporter', 'Nursery - Plant Nursery']",+33490409810,+33490408888,starexport0169@orange.fr,-,-,-,-
STARGROW LTD,Die Boord, South Africa (Republic of South Africa),"['Nursery - Plant Nursery', 'Producer - Producer', 'Wholesaler - Producer']",+27218801485,+27218801882,fruit@stargrow.co.za,www.stargrow.co.za,-,-,-
SUCA S.C.A.,El Ejido, Spain,['Nursery - Fertilizer'],+34950581868,+34950480319,infosuca@gruposuca.com,-,-,-,-
SUMMERFRUIT S.r.l.,Castel Bolognese, Italy,"['Exporter - Exporter', 'Nursery - Plant Nursery']",+390546654716,+39054655829,info@summerfruit.it,www.summerkiwi.com,-,+393482341748,-
SYLVAN BIO EUROPE S.a.r.l.,Loches, France,"['Nursery - Seeds', 'Producer - Producer', 'Wholesaler - Producer']",+33247940140,+33247590045,jmtartarin@sylvan.fr,www.sylvaninc.com,-,-,-
SYLVAN FOODS NETHERLANDS B.V.,Horst, Holland - The Netherlands,"['Nursery - Seeds', 'Wholesaler - Wholesale']",+31773978421,+31773970404,jmtartarin@sylvan.fr,www.sylvaninc.com,-,-,-
SYLVAN FOODS UK LTD,London, United Kingdom,['Nursery - Fertilizer'],+441733245020,+441733240412,jmtartarin@sylvan.fr,www.sylvaninc.com,-,-,-
SYLVAN MEXICO S.A. de C.V.,Ciudad de Mexico, Mexico,"['Nursery - Seeds', 'Producer - Producer', 'Wholesaler - Producer']",+525552458701,-,jmtartarin@sylvan.fr,www.sylvaninc.com,-,-,-
SYLVAN POLAND,Dopiewo (pow. Poznanski), Poland,['Nursery - Seeds'],+48618942513,+48618942512,jmtartarin@sylvan.fr,www.sylvaninc.com,-,+48608328028,-
SYLVAN RUSSIA,Moscow, Russian Federation,['Nursery - Seeds'],-,+74956840460,khrenov@inbox.ru,www.sylvaninc.com,-,+74957747348,-
SYNGENTA AGRIBUSINESS S.A.,Santiago, Chile,['Nursery - Seeds'],+56222443444,+56229410100,-,-,-,-,-
SYNGENTA AGRO AG,Dielsdorf ZH, Switzerland,['Nursery - Seeds'],+41448558713,+41448558877,-,www.syngenta-agro.ch,-,-,-
SYNGENTA AGRO GmbH,Maintal, Germany,['Nursery - Seeds'],+4961819081281,+49618190810,beratungscenter.info@syngenta.com,www.syngenta.com,-,-,-
SYNGENTA AGRO S.A.,Madrid, Spain,['Nursery - Seeds'],+34917210081,+34913876410,javier.cebrian@syngenta.com,www.syngenta.es,-,+34649485673,-
SYNGENTA BIOLINE LTD,"Clacton-on-Sea, Essex", United Kingdom,['Nursery - Seeds'],+441255863206,+441255863200,syngenta.bioline@syngenta.com,-,-,-,-
SYNGENTA CROP PROTECTION S.A.,San Isidro, Peru,['Nursery - Seeds'],+512221497,+514226202,-,-,-,-,-
SYNGENTA CROP PROTECTION S.A.,Alajuela, Costa Rica,['Nursery - Seeds'],-,+5064314707,-,-,-,-,-
SYNGENTA CROP PROTECTION UK LTD,"Fulbourn, Cambs", United Kingdom,['Nursery - Seeds'],+441223882195,+441223883400,customer.services@syngenta.com,-,-,-,-
SYNGENTA IRELAND LTD,Waterford, Ireland,['Nursery - Seeds'],+35351354748,+35351377203,-,-,-,-,-
SYNGENTA LAN,Santo Domingo de Guzmán, Dominican Republic,['Nursery - Seeds'],+180925409340,+18092270412,-,-,-,-,-
SYNGENTA OOO,Moscow, Russian Federation,['Nursery - Seeds'],+74959692198,+74959692199,-,www.syngenta.ru,-,-,-
SYNGENTA SEEDS A/S,Copenhagen, Denmark,['Nursery - Seeds'],-,-,-,-,-,-,-
SYNGENTA SEEDS GmbH,Kleve, Germany,['Nursery - Seeds'],+492821994171,+492821994170,-,-,-,-,-
SYNGENTA SEEDS GmbH,Bad Salzuflen, Germany,['Nursery - Seeds'],+495222530863,+49522253080,-,www.syngenta-seeds.de,-,-,-
SYNGENTA SEEDS LTD,"Fulbourn, Cambs", United Kingdom,['Nursery - Seeds'],+441223882195,+441223883400,-,www.syngenta.com,-,-,-
SYNGENTA SEEDS LTD,"Guildford, Surrey", United Kingdom,['Nursery - Seeds'],+441483260001,+441483260000,-,-,-,-,-
SYNGENTA SEEDS LTD,"Bracknell, Berkshire", United Kingdom,['Nursery - Seeds'],+441344455629,+441344424701,-,-,-,-,-
SYNGENTA SEEDS S.p.A.,Milano, Italy,['Nursery - Seeds'],+390233406112,+390233444339,paolo.dilernia@syngenta.com,www.syngenta.com,-,-,-
SYNGENTA SEEDS Sp. z o.o.,Warszawa, Poland,['Nursery - Seeds'],+48223260689,+48223260690,wojciech.junczyk@syngenta.com,www.syngenta.pl,-,-,-
SYNGENTA SEMENCES S.A.,Agadir, Morocco,['Nursery - Seeds'],+212528233479,+212528219030,frederic.castoro@syngenta.com,www.sg-vegetables.com,-,+212661343888,-
SYNGENTA YUGOSLAVIA d.o.o.,Beograd, Serbia,['Nursery - Seeds'],+381113129980,+381113129981,-,www.syngenta.rs,-,-,-
TAGEM AGRI,Istanbul, Turkey,['Nursery - Fertilizer'],+902165945613,-,tagem@tagemziraat.com.tr,www.tagemziraat.com.tr,-,-,-
TAGLIANI VIVAI INTERNATIONAL S.r.l.,Ostellato, Italy,"['Exporter - Exporter', 'Nursery - Plant Nursery']",+390533681093,+390533680389,luis@taglianivivai.it,www.taglianivivai.it,-,-,-
TAKII EUROPE B.V.,De Kwakel, Holland - The Netherlands,['Nursery - Seeds'],+31297345658,+31297345700,nmo@takii.eu,www.takii.eu,-,-,-
TOKITA SEED CO.LTD.,Saitama, Japan,['Nursery - Seeds'],+81486881167,+81486867235,ike@tokitaseed.co.jp,www.tokitaseed.co.jp,-,-,-
TOMA TECH LTD.,Rehovot, Israel,['Nursery - Seeds'],+97289315975,+97289315920,info@toma-tech.com,www.toma-tech.com,-,-,-
TOP PLANT DI RAIFER THOMAS,Appiano sulla Strada del Vino, Italy,['Nursery - Plant Nursery'],-,-,-,www.raifer.it,-,-,-
TOZER IBERICA S.L.,Fuente Alamo, Spain,['Nursery - Seeds'],+34968598904,+34968596309,tozeriberica@tozerseeds.com,www.tozerseeds.com,-,+34659827396,-
TOZER SEEDS AMERICA LLC,Santa Maria, United States of America,['Nursery - Seeds'],+18059222111,+18059226300,sales@tozerseedsamerica.com,www.tozerseeds.com,-,-,-
TOZER SEEDS LTD,"Cobham, Surrey", United Kingdom,['Nursery - Seeds'],+441932868973,+441932862059,info@tozerseeds.com,www.tozerseeds.com,-,-,-
UNICORN SEEDS LTD,Secunderabad, India,['Nursery - Seeds'],+914027842399,+914027847769,info@goldenadvanta.com,www.uniagro.ch,-,-,-
VALAGRO S.p.A.,Atessa, Italy,"['Auxiliary Industries - Industry- Chemical industry', 'Nursery - Fertilizer']",+390872897416,+3908728811,info@valagro.com,www.valagro.com,-,+393346737943,-
VIVA IGNA S.R.L.,"Grimancauti, Briceni", Moldova,"['Exporter - Exporter', 'Fruit and Vegetable Processing - Freeze-keeping', 'Nursery - Seeds', 'Producer - Producer and trader', 'Wholesaler - Producer and trader']",+37324793055,+37324748947,info@viva-igna.com,www.viva-igna.com,-,+37369125817,-
VIVAI CAFARO Soc. Agr. S.r.l.,Eboli, Italy,"['Nursery - Plant Nursery', 'Producer - Producer and trader', 'Wholesaler - Producer and trader']",+390828600922,+390828601155,vivaicafaro@gmail.com,-,-,-,-
VIVAI CALDERONI,Solarolo, Italy,['Nursery - Plant Nursery'],-,-,vivaicalderoni@libero.it,www.vivaicalderoni.it,-,-,-
VIVAI COOP. ANSALONI,San Lazzaro di Savena, Italy,['Nursery - Plant Nursery'],+39051464131,+39051460105,vivaicoopansaloni@libero.it,-,-,-,-
VIVAI F.LLI ZANZI di CARLO ZANZI & C. s.s. SOCIETA' AGRICOLA,Fossanova San Marco, Italy,['Nursery - Plant Nursery'],+39053260028,+390532719072,vivaizanzi@vivaizanzi.it,www.vivaizanzi.it,-,-,-
VIVAI FORTUNATO,Sammichele di Bari, Italy,['Nursery - Plant Nursery'],-,-,info@vivaifortunato.it,www.vivaifortunato.it,-,+393338590027,-
VIVAI FRAIRE LUIGI,Revello, Italy,['Nursery - Plant Nursery'],-,-,-,-,-,-,-
VIVAI GIANNOCCARO,Sammichele di Bari, Italy,['Nursery - Plant Nursery'],+390808917133,+390808918219,info@vivaigiannoccaro.it,www.giannoccaro.com,-,-,-
VIVAI LUCIANO ZADRA di LORIS ZADRA,San Giorgio di Arco, Italy,['Nursery - Plant Nursery'],-,-,vivaizadra@virgilio.it,www.vivaizadra.com,-,-,-
VIVAI MASTERPLANT S.r.l. Soc. Agr.,Ariano Polesine, Italy,['Nursery - Plant Nursery'],+39042678288,+39042637881,plant@masterplant.it,www.masterplant.it,-,-,-
VIVAI PIANTE BATTISTINI SOC. AGRICOLA s.s.,Cesena, Italy,['Nursery - Plant Nursery'],+390547384400,+390547380545,batvivai@battistinivivai.com,www.battistinivivai.com,-,-,-
VIVAIO SANTACROCE di SANTACROCE DOMENICO,Francavilla Angitola, Italy,"['Nursery - Plant Nursery', 'Producer - Producer and trader', 'Wholesaler - Producer and trader']",+390968789779,+39096878781,info@vivaiosantacroce.it,www.vivaiosantacroce.it,-,+39335425360,-
VIVERO HUMUS,El Bolsón, Argentina,"['Nursery - Plant Nursery', 'Producer - Producer and trader', 'Wholesaler - Producer and trader']",-,-,info@viverohumus.com.ar,www.viverohumus.com.ar,-,-,-
VIVERO TIEMPO NUEVO LTDA.,San Fernando, Chile,['Nursery - Plant Nursery'],-,-,-,-,-,-,-
VIVEROS BERLANGA,Berlanga, Spain,['Nursery - Plant Nursery'],-,-,viverosberlanga@hotmail.com,www.viverosberlanga.com,-,+34661917334,-
VIVEROS CARBONERO S.L.,Carbonero el Mayor, Spain,['Nursery - Plant Nursery'],-,-,viveroscarbonero@futurnet.es,www.viveroscarbonero.com,-,+34606362992,-
VIVEROS CITRICOS CLEMENPONS S.L.,Traiguera, Spain,['Nursery - Plant Nursery'],-,-,-,-,-,-,-
VIVEROS MARIANO SORIA S.L.,Antequera, Spain,['Nursery - Plant Nursery'],+34952840859,+34952703983,antequera@viverosmarianosoria.com,www.viverosmarianosoria.com,-,-,-
VIVEROS PROVEDO S.A.,Don Benito, Spain,['Nursery - Plant Nursery'],+34924812593,+34924811746,aliseda@provedo.com,www.provedo.com,-,+34654518533,-
VIVEROS PROVEDO S.A.,Logroño, Spain,['Nursery - Plant Nursery'],+34941272780,+34941272777,provedo@provedo.com,www.provedo.com,-,-,-
VIVEROS SANCHO HNOS,Alcanar, Spain,['Nursery - Plant Nursery'],+34977732052,+34977730096,-,-,-,-,-
"VIVEROS SECUEDUCTOS, S.L.",Mozoncillo, Spain,"['Nursery - Plant Nursery', 'Producer - Producer and trader', 'Wholesaler - Producer and trader']",+34921577062,-,santiagoherranz@telefonica.net,-,-,-,-
VIVEROS SEVILLA S.A.,Lepe, Spain,['Nursery - Plant Nursery'],-,-,-,-,-,-,-
VIVEROS SUNNYRIDGE LTDA.,Melipilla, Chile,"['Exporter - Exporter', 'Nursery - Plant Nursery']",+56223695657,+56223702929,marcela.zuniga@sunnyridge.cl,www.sunnyridge.cl,-,+56990203450,-
VIVEROS Y FRUTAS SERVETO S.L.,Fraga, Spain,"['Exporter - Exporter', 'Nursery - Plant Nursery', 'Producer - Producer and trader', 'Wholesaler - Producer and trader']",-,-,viverosserveto@hotmail.com,www.gruposerveto.com,-,+34626820535,-
VIVERS HERNANDORENA S.L.,Carlet, Spain,['Nursery - Plant Nursery'],+34962531469,+34962532681,comercial@hernandorena.com,www.hernandorena.com,-,-,-
VOCAR PIRAMIDA,Visoko, Bosnia Herzegovina,"['Nursery - Plant Nursery', 'Producer - Producer and trader', 'Wholesaler - Producer and trader']",+38732730251,+38732730250,nselimovic@gmail.com,www.vocar-piramida.ba,-,+38761792284,-
VOLMARY GmbH,Münster, Germany,['Nursery - Seeds'],+4925127070270,+4925127070100,info@volmary.com,www.volmary.com,-,-,-
WADI EL-NILE FOR AGRICULTURAL DEVELOPMENT,Mohandesseen-Giza/Cairo, Egypt,['Nursery - Fertilizer'],+20237605962,+20237609092,wadielnilco_2004@yahoo.com,www.wadielnil.net,-,+201003420500,-
WARPOL-AGRO Sp. z o.o.,Kotun, Poland,"['Auxiliary Industries - Equipment and services', 'Auxiliary Industries - Industry - Production machinery', 'Nursery - Fertilizer']",-,+48256414270,warpol@warpol-agro.com.pl,www.warpol-agro.com.pl,-,-,-
WELSH FRUIT STOCKS,"Hereford, Herefordshire", United Kingdom,['Nursery - Plant Nursery'],-,-,sian@welshfruitstocks.co.uk,www.welshfruitstocks.co.uk,-,-,-
WERKOS d.o.o.,Osijek, Croatia (Hrvatska),"['Nursery - Plant Nursery', 'Producer - Producer and trader', 'Wholesaler - Producer and trader']",+38531228703,+38531228700,ivana.franjic@werkos.com,www.werkosagro.com,-,-,-
WESTERN SEED INTERNATIONAL B.V.,Naaldwijk, Holland - The Netherlands,['Nursery - Seeds'],+31174648199,+31174671534,-,www.westernseed.nl,-,-,-
WESTERN SEED ITALIA JVC S.r.l.,Vittoria, Italy,['Nursery - Seeds'],+390932510595,+390932510416,-,-,-,+393357477895,-
WIGHT SALADS LTD,"Runcton, W. Sussex", United Kingdom,"['Nursery - Plant Nursery', 'Producer - Producer and trader', 'Wholesaler - Producer and trader']",+441243819699,-,info@wightsaladsgroup.com,www.wightsaladsgroup.com,-,-,-
WING SEED B.V.,Enkhuizen, Holland - The Netherlands,['Nursery - Seeds'],+31228585757,+31228321157,info@wingseed.nl,www.wingseed.nl,-,-,-
YARA AGRONEGOCIOS LTDA,Porto Alegre, Brazil,['Nursery - Fertilizer'],+555132324680,+555132324678,-,www.yarabrasil.com.br,-,-,-
YARA BRASIL FERTILIZANTES S.A,Porto Alegre, Brazil,['Nursery - Fertilizer'],+555132331278,+555132331122,-,www.yarabrasil.com.br,-,-,-
YARA C.G. LIQUIDOS S.L.,Alicante, Spain,['Nursery - Fertilizer'],-,-,yara@yara.com,www.yara.com,-,-,-
YARA LATIN AMERICA,São Paulo, Brazil,['Nursery - Fertilizer'],+551121658383,+551121658388,-,www.yarabrasil.com.br,-,-,-
YARA MEXICO S.A. de C.V,Tlajomulco de Zuniga, Mexico,['Nursery - Fertilizer'],-,-,-,-,-,-,-
YARA PRAXAIR A/S,Oslo, Norway,['Nursery - Fertilizer'],+4723707000,+4704277,norge@yarapraxair.com,www.yara.no,-,-,-
YARA SUOMI OY.,Siilinjärvi, Finland,['Nursery - Fertilizer'],+358102156000,+35810215111,-,-,-,-,-
YUKSEL TOHUMCULUK TARIM SAN. VE TIC. LTD. STI,Antalya, Turkey,['Nursery - Seeds'],+902424612346,+902424612393,hkurt@yukseltohum.com,www.yukselseed.com,-,-,-
ZAYINTEC SEEDS,Almeria, Spain,['Nursery - Seeds'],-,-,info@zayintec.com,www.zayintec.com,-,-,-
ZAYINTEC SEEDS,Amman, Jordan,['Nursery - Seeds'],-,-,-,-,-,-,-
ZELENI HIT d.o.o.,Ljubljana, Slovenia,['Nursery - Seeds'],+38615800059,+38615800058,manuela.avsic@zelenihit.si,www.zelenihit.si,-,+38641458231,-
ZERAIM GEDERA LTD.,Gedera, Israel,['Nursery - Seeds'],+97289446262,+97289446252,info@zeraimgederamarketing.com,www.zeraimgedera.com,-,+972522932051,-
ZETA SEEDS ITALIA S.r.l.,Monteveglio, Italy,['Nursery - Seeds'],+39051839333,+39051833555,ufficio@zetaseeds.it,www.zetaseeds.it,-,-,-
ZLATNI PUT d.o.o.,Zagreb, Croatia (Hrvatska),['Nursery - Seeds'],-,-,-,-,-,-,-
